OBJECT_NAME,OBJECT_ID,EPOCH,MEAN_MOTION,ECCENTRICITY,INCLINATION,RA_OF_ASC_NODE,ARG_OF_PERICENTER,MEAN_ANOMALY,EPHEMERIS_TYPE,CLASSIFICATION_TYPE,NORAD_CAT_ID,ELEMENT_SET_NO,REV_AT_EPOCH,BSTAR,MEAN_MOTION_DOT,MEAN_MOTION_DDOT
HAIYANG-2E,2026-149A,2026-07-07T16:28:26.550624,13.79755745,.00054291,99.3473,195.7143,202.0099,158.0821,0,U,69737,999,79,-.55876364E+0,-.549914E-2,0
CZ-4B R/B,2026-149B,2026-07-08T23:09:05.927616,14.30065940,.0198404,99.3215,197.5381,348.0323,11.6179,0,U,69738,999,124,.44055589E-4,.83E-6,0
STARLINK-38033,2026-150A,2026-07-08T22:00:01.999584,15.80792412,.0001738,97.2848,27.9147,95.6604,107.2206,0,U,69739,999,229,.11483442E-3,.21886E-3,0
STARLINK-38076,2026-150B,2026-07-08T22:00:01.999584,15.81137597,.00017334,97.2846,27.9160,103.7283,103.2609,0,U,69740,999,229,-.69881124E-2,-.1208372E-1,0
STARLINK-38074,2026-150C,2026-07-08T22:00:01.999584,15.80772708,.00019304,97.2847,27.9212,103.8191,113.7429,0,U,69741,999,229,.29751332E-3,.5711E-3,0
STARLINK-38041,2026-150D,2026-07-08T22:00:01.999584,15.80800691,.00008851,97.2849,27.9232,103.9314,117.5629,0,U,69742,999,229,.17551055E-3,.33582E-3,0
STARLINK-38087,2026-150E,2026-07-08T22:00:01.999584,15.80755805,.00014667,97.2848,27.9246,96.6700,129.5083,0,U,69743,999,229,.32035962E-3,.61487E-3,0
STARLINK-38078,2026-150F,2026-07-08T22:00:01.999584,15.80780365,.00010128,97.2847,27.9265,100.1382,130.2856,0,U,69744,999,229,.1957109E-3,.37445E-3,0
STARLINK-38047,2026-150G,2026-07-08T22:00:01.999584,15.80734504,.00020953,97.2850,27.9294,99.0827,135.8445,0,U,69745,999,229,.54816946E-3,.105752E-2,0
STARLINK-38046,2026-150H,2026-07-08T22:00:01.999584,15.80782679,.00009533,97.2853,27.9335,106.8960,139.0113,0,U,69746,999,229,.19804383E-3,.37899E-3,0
STARLINK-38067,2026-150J,2026-07-08T22:00:01.999584,15.80762794,.0000824,97.2855,27.9361,85.1238,166.5909,0,U,69747,999,229,.33621408E-3,.64578E-3,0
STARLINK-37988,2026-150K,2026-07-08T22:00:01.999584,15.80720156,.00007171,97.2854,27.9372,69.9313,184.6883,0,U,69748,999,229,.6738336E-3,.130301E-2,0
STARLINK-37987,2026-150L,2026-07-08T22:00:01.999584,15.80822012,.00013783,97.2856,27.9394,77.1783,182.4011,0,U,69749,999,229,-.22685222E-3,-.43392E-3,0
STARLINK-38037,2026-150M,2026-07-08T22:00:01.999584,15.81468204,.00013587,97.2859,27.9445,96.2855,175.2612,0,U,69750,999,229,-.51438249E-2,-.915123E-2,0
STARLINK-38049,2026-150N,2026-07-08T22:00:01.999584,15.81966743,.00014945,97.2861,27.9472,103.0983,173.9057,0,U,69751,999,229,-.8204786E-2,-.1468389E-1,0
STARLINK-38029,2026-150P,2026-07-08T22:00:01.999584,15.84366661,.0001504,97.2868,27.9588,99.5926,206.4330,0,U,69752,999,229,-.11918404E-1,-.2286794E-1,0
STARLINK-37965,2026-150Q,2026-07-08T22:00:01.999584,15.84350213,.00014601,97.2867,27.9589,99.7709,207.2273,0,U,69753,999,229,-.11898953E-1,-.2282092E-1,0
STARLINK-38048,2026-150R,2026-07-08T20:00:01.999872,15.84777812,.00017978,97.2871,27.8713,87.5031,105.6722,0,U,69754,999,227,-.11861967E-1,-.2373612E-1,0
STARLINK-38006,2026-150S,2026-07-08T20:00:01.999872,15.85716280,.00016691,97.2875,27.8766,88.8908,117.0256,0,U,69755,999,227,-.11358556E-1,-.2320565E-1,0
STARLINK-38036,2026-150T,2026-07-08T20:00:01.999872,15.86119282,.00017067,97.2877,27.8795,89.2621,122.9397,0,U,69756,999,227,-.11177282E-1,-.2327732E-1,0
STARLINK-38058,2026-150U,2026-07-08T20:00:01.999872,15.86129706,.00016919,97.2878,27.8800,98.0190,115.5529,0,U,69757,999,227,-.11095741E-1,-.2314521E-1,0
STARLINK-38066,2026-150V,2026-07-08T20:00:01.999872,15.86132937,.00016094,97.2877,27.8803,88.4870,125.9479,0,U,69758,999,227,-.11155178E-1,-.2325036E-1,0
STARLINK-38035,2026-150W,2026-07-08T20:00:01.999872,15.86097373,.00017326,97.2877,27.8806,98.9566,116.2990,0,U,69759,999,227,-.11131002E-1,-.2317651E-1,0
STARLINK-38056,2026-150X,2026-07-08T20:00:01.999872,15.87231986,.00016384,97.2879,27.8869,97.8747,132.4522,0,U,69760,999,227,-.10531161E-1,-.2318777E-1,0
STARLINK-38069,2026-150Y,2026-07-08T20:00:01.999872,15.88345631,.0001542,97.2881,27.8934,97.4773,147.0812,0,U,69761,999,227,-.99144623E-2,-.2309593E-1,0
STARLINK-38019,2026-150Z,2026-07-08T20:00:01.999872,15.88351603,.00015909,97.2881,27.8937,102.8160,143.2192,0,U,69762,999,227,-.9904867E-2,-.230838E-1,0
KUIPER-00258,2026-151A,2026-07-08T14:00:03.000384,15.35497723,.00120523,51.8669,212.4392,147.0008,325.1859,0,U,69763,999,136,.99681742E-3,.34765E-3,0
KUIPER-00526,2026-151B,2026-07-08T14:00:03.000384,15.37191674,.00061638,51.8759,212.3577,117.3599,33.5016,0,U,69764,999,130,.12693033E-2,.46873E-3,0
KUIPER-00558,2026-151C,2026-07-08T14:00:03.000384,15.36705598,.00077169,51.8750,212.3794,128.4980,12.0861,0,U,69765,999,160,.87074155E-3,.31474E-3,0
KUIPER-00569,2026-151D,2026-07-08T14:00:03.000384,15.37364899,.00052038,51.8782,212.3453,115.5579,39.9689,0,U,69766,999,130,.84921305E-3,.31337E-3,0
