HAIYANG-2E              
1 69737U 26149A   26188.68641841 -.00549914  00000+0 -55876+0 0  9990
2 69737  99.3473 195.7143 0005429 202.0099 158.0821 13.79755745   795
CZ-4B R/B               
1 69738U 26149B   26189.96465194  .00000083  00000+0  44056-4 0  9998
2 69738  99.3215 197.5381 0198404 348.0323  11.6179 14.30065940  1241
STARLINK-38033          
1 69739U 26150A   26189.91668981  .00021886  00000+0  11483-3 0  9996
2 69739  97.2848  27.9147 0001738  95.6604 107.2206 15.80792412  2293
STARLINK-38076          
1 69740U 26150B   26189.91668981 -.01208372  00000+0 -69881-2 0  9992
2 69740  97.2846  27.9160 0001733 103.7283 103.2609 15.81137597  2298
STARLINK-38074          
1 69741U 26150C   26189.91668981  .00057110  00000+0  29751-3 0  9995
2 69741  97.2847  27.9212 0001930 103.8191 113.7429 15.80772708  2290
STARLINK-38041          
1 69742U 26150D   26189.91668981  .00033582  00000+0  17551-3 0  9998
2 69742  97.2849  27.9232 0000885 103.9314 117.5629 15.80800691  2298
STARLINK-38087          
1 69743U 26150E   26189.91668981  .00061487  00000+0  32036-3 0  9999
2 69743  97.2848  27.9246 0001466  96.6700 129.5083 15.80755805  2299
STARLINK-38078          
1 69744U 26150F   26189.91668981  .00037445  00000+0  19571-3 0  9996
2 69744  97.2847  27.9265 0001012 100.1382 130.2856 15.80780365  2290
STARLINK-38047          
1 69745U 26150G   26189.91668981  .00105752  00000+0  54817-3 0  9996
2 69745  97.2850  27.9294 0002095  99.0827 135.8445 15.80734504  2298
STARLINK-38046          
1 69746U 26150H   26189.91668981  .00037899  00000+0  19804-3 0  9990
2 69746  97.2853  27.9335 0000953 106.8960 139.0113 15.80782679  2298
STARLINK-38067          
1 69747U 26150J   26189.91668981  .00064578  00000+0  33621-3 0  9998
2 69747  97.2855  27.9361 0000824  85.1238 166.5909 15.80762794  2298
STARLINK-37988          
1 69748U 26150K   26189.91668981  .00130301  00000+0  67383-3 0  9999
2 69748  97.2854  27.9372 0000717  69.9313 184.6883 15.80720156  2293
STARLINK-37987          
1 69749U 26150L   26189.91668981 -.00043392  00000+0 -22685-3 0  9991
2 69749  97.2856  27.9394 0001378  77.1783 182.4011 15.80822012  2299
STARLINK-38037          
1 69750U 26150M   26189.91668981 -.00915123  00000+0 -51438-2 0  9990
2 69750  97.2859  27.9445 0001358  96.2855 175.2612 15.81468204  2298
STARLINK-38049          
1 69751U 26150N   26189.91668981 -.01468389  00000+0 -82048-2 0  9990
2 69751  97.2861  27.9472 0001494 103.0983 173.9057 15.81966743  2291
STARLINK-38029          
1 69752U 26150P   26189.91668981 -.02286794  00000+0 -11918-1 0  9997
2 69752  97.2868  27.9588 0001504  99.5926 206.4330 15.84366661  2297
STARLINK-37965          
1 69753U 26150Q   26189.91668981 -.02282092  00000+0 -11899-1 0  9993
2 69753  97.2867  27.9589 0001460  99.7709 207.2273 15.84350213  2291
STARLINK-38048          
1 69754U 26150R   26189.83335648 -.02373612  00000+0 -11862-1 0  9995
2 69754  97.2871  27.8713 0001797  87.5031 105.6722 15.84777812  2277
STARLINK-38006          
1 69755U 26150S   26189.83335648 -.02320565  00000+0 -11359-1 0  9996
2 69755  97.2875  27.8766 0001669  88.8908 117.0256 15.85716280  2277
STARLINK-38036          
1 69756U 26150T   26189.83335648 -.02327732  00000+0 -11177-1 0  9998
2 69756  97.2877  27.8795 0001706  89.2621 122.9397 15.86119282  2272
STARLINK-38058          
1 69757U 26150U   26189.83335648 -.02314521  00000+0 -11096-1 0  9991
2 69757  97.2878  27.8800 0001691  98.0190 115.5529 15.86129706  2270
STARLINK-38066          
1 69758U 26150V   26189.83335648 -.02325036  00000+0 -11155-1 0  9991
2 69758  97.2877  27.8803 0001609  88.4870 125.9479 15.86132937  2279
STARLINK-38035          
1 69759U 26150W   26189.83335648 -.02317651  00000+0 -11131-1 0  9990
2 69759  97.2877  27.8806 0001732  98.9566 116.2990 15.86097373  2273
STARLINK-38056          
1 69760U 26150X   26189.83335648 -.02318777  00000+0 -10531-1 0  9995
2 69760  97.2879  27.8869 0001638  97.8747 132.4522 15.87231986  2272
STARLINK-38069          
1 69761U 26150Y   26189.83335648 -.02309593  00000+0 -99145-2 0  9991
2 69761  97.2881  27.8934 0001542  97.4773 147.0812 15.88345631  2276
STARLINK-38019          
1 69762U 26150Z   26189.83335648 -.02308380  00000+0 -99049-2 0  9998
2 69762  97.2881  27.8937 0001590 102.8160 143.2192 15.88351603  2279
KUIPER-00258            
1 69763U 26151A   26189.58336806  .00034765  00000+0  99682-3 0  9992
2 69763  51.8669 212.4392 0012052 147.0008 325.1859 15.35497723  1360
KUIPER-00526            
1 69764U 26151B   26189.58336806  .00046873  00000+0  12693-2 0  9992
2 69764  51.8759 212.3577 0006163 117.3599  33.5016 15.37191674  1303
KUIPER-00558            
1 69765U 26151C   26189.58336806  .00031474  00000+0  87074-3 0  9990
2 69765  51.8750 212.3794 0007716 128.4980  12.0861 15.36705598  1606
KUIPER-00569            
1 69766U 26151D   26189.58336806  .00031337  00000+0  84921-3 0  9997
2 69766  51.8782 212.3453 0005203 115.5579  39.9689 15.37364899  1303
